ONEWEB-0584             
1 54651U 22166K   24021.61343069 -.00000100  00000+0 -27381-3 0  9995
2 54651  87.9214  58.6614 0001502 104.5443 255.5857 13.21825158 55589
ONEWEB-0585             
1 54652U 22166L   24022.47132435 -.00000075  00000+0 -21402-3 0  9993
2 54652  87.9216  58.4956 0002094 100.6947 259.4423 13.21824361 56175
ONEWEB-0586             
1 54653U 22166M   24022.10545276  .00000113  00000+0  24204-3 0  9999
2 54653  87.9210  58.5927 0001649  99.1871 260.9449 13.21823982 56120
ONEWEB-0587             
1 54654U 22166N   24022.49342453  .00000056  00000+0  10494-3 0  9996
2 54654  87.9208  58.4729 0002160  90.7275 269.4106 13.21826494 56328
ONEWEB-0589             
1 54655U 22166P   24021.64811916  .00000000  00000+0 -30896-4 0  9997
2 54655  87.9218  58.6669 0000989 117.3216 242.8019 13.21823852 55617
ONEWEB-0590             
1 54656U 22166Q   24022.12596304 -.00000360  00000+0 -90295-3 0  9991
2 54656  87.9213  58.5736 0001818  86.3326 273.8015 13.21824065 56120
ONEWEB-0591             
1 54657U 22166R   24021.60869855  .00000054  00000+0  99494-4 0  9997
2 54657  87.9212  58.6795 0001663  97.7858 262.3465 13.21825509 55620
ONEWEB-0592             
1 54658U 22166S   24022.14172918 -.00000259  00000+0 -65946-3 0  9998
2 54658  87.9208  58.5439 0001518  97.7734 262.3572 13.21824305 56041
